STARLINK-31446          
1 59315U 24056V   26097.30338398 -.00001925  00000+0 -60442-4 0  9999
2 59315  43.0051  68.8332 0001134 254.8772 105.1955 15.27581495115530
STARLINK-31479          
1 59316U 24056W   26097.30560373  .00000916  00000+0  42800-4 0  9995
2 59316  43.0030  73.1704 0000775 293.8512  66.2258 15.27587234115489
STARLINK-31349          
1 59317U 24056X   26097.25341503  .00001029  00000+0  46907-4 0  9990
2 59317  43.0032  69.3158 0001250 276.3320  83.7389 15.27582188115598
STARLINK-31464          
1 59318U 24056Y   26097.31109214  .00001083  00000+0  48863-4 0  9992
2 59318  43.0044  68.8925 0001164 270.5073  89.5646 15.27581400115533
STARLINK-31402          
1 59320U 24057A   26097.35060842  .00001731  00000+0  72424-4 0  9993
2 59320  43.0023 337.6038 0001142 291.6574  68.4156 15.27579406114759
STARLINK-31578          
1 59321U 24057B   26097.12929544  .00002526  00000+0  10123-3 0  9992
2 59321  43.0049  26.0214 0001182 272.2510  87.8207 15.27597359114199
STARLINK-31530          
1 59322U 24057C   26097.15611362  .00044528  00000+0  80182-3 0  9992
2 59322  42.9955  20.1474 0019547 207.0948 152.8893 15.48872739114265
STARLINK-31565          
1 59323U 24057D   26097.54521447  .00018630  00000+0  68446-3 0  9994
2 59323  43.0048  31.7705 0000830 339.6691  20.4128 15.27597979114165
STARLINK-31570          
1 59324U 24057E   26097.51921408  .00002995  00000+0  11839-3 0  9994
2 59324  43.0046  24.6522 0000957 293.0966  66.9784 15.27562704114240
STARLINK-31611          
1 59325U 24057F   26097.12817091  .00000157  00000+0  15249-4 0  9992
2 59325  43.0055  26.8804 0001405 294.0190  66.0515 15.27589353114182
STARLINK-31632          
1 59326U 24057G   26097.16268944  .00000884  00000+0  41636-4 0  9990
2 59326  43.0038  37.5228 0001244 283.2224  76.8489 15.27583099114069
STARLINK-31599          
1 59327U 24057H   26097.21139042  .00001615  00000+0  68207-4 0  9999
2 59327  43.0030  25.7822 0001860 276.7395  83.3245 15.27572845114207
STARLINK-31614          
1 59328U 24057J   26097.10502522  .00005664  00000+0  21521-3 0  9990
2 59328  43.0057  26.7044 0001370 289.8431  70.2273 15.27579581114183
STARLINK-31493          
1 59329U 24057K   26097.21910674 -.00001935  00000+0 -60816-4 0  9994
2 59329  43.0002  25.8411 0000631 266.0254  94.0526 15.27580508114200
STARLINK-31634          
1 59330U 24057L   26097.50637125 -.00002309  00000+0 -74479-4 0  9991
2 59330  43.0024  24.5546 0001023 237.1017 122.9737 15.27553489114240
STARLINK-31633          
1 59331U 24057M   26097.50377802 -.00001173  00000+0 -33143-4 0  9996
2 59331  43.0058  24.5319 0000628 275.3951  84.6829 15.27571543114244
STARLINK-31594          
1 59332U 24057N   26097.23193174 -.00003022  00000+0 -10028-3 0  9996
2 59332  43.0042  37.1779 0001155 263.6415  96.4305 15.27593044114070
STARLINK-31572          
1 59333U 24057P   26097.16911856  .00000585  00000+0  30775-4 0  9995
2 59333  43.0036  37.5658 0001073 279.1503  80.9228 15.27579870114065
STARLINK-31573          
1 59334U 24057Q   26097.13061632 -.00005248  00000+0 -18141-3 0  9996
2 59334  43.0076  26.0277 0001749 239.1517 120.9163 15.27560634114196
STARLINK-31588          
1 59335U 24057R   26097.20238703  .00003117  00000+0  12271-3 0  9999
2 59335  43.0033  25.7114 0001523 220.6706 139.4032 15.27593521114204
STARLINK-31596          
1 59336U 24057S   26097.20625259  .00001432  00000+0  61557-4 0  9996
2 59336  43.0011  25.7402 0001918 277.7640  82.2993 15.27579948114207
STARLINK-31612          
1 59337U 24057T   26097.49093642 -.00000430  00000+0 -61234-5 0  9995
2 59337  43.0014  24.4376 0000644 287.6263  72.4518 15.27571421114249
STARLINK-31550          
1 59338U 24057U   26097.51664125  .00012203  00000+0  45314-3 0  9997
2 59338  43.0036  24.6305 0001105 247.7168 112.3567 15.27513884114249
STARLINK-31473          
1 59339U 24057V   26097.15243564  .00026046  00000+0  95163-3 0  9995
2 59339  43.0015  26.1982 0001175 255.3069 104.7652 15.27615944114191
STARLINK-31562          
1 59340U 24057W   26097.18276934  .00000296  00000+0  20291-4 0  9997
2 59340  43.0022  41.1429 0001159 274.1587  85.9133 15.27578044114025
STARLINK-31600          
1 59341U 24057X   26097.22213849  .00000903  00000+0  42360-4 0  9995
2 59341  43.0049  33.6433 0001548 287.0288  73.0394 15.27570295114116
STARLINK-31628          
1 59342U 24057Y   26097.17298992 -.00001326  00000+0 -38675-4 0  9998
2 59342  43.0031  26.3501 0000898 289.9508  70.1247 15.27583103114191
YUNHAI-3 02             
1 59343U 24058A   26097.60669493  .00000018  00000+0  32770-4 0  9991
2 59343  98.8229 106.4420 0000972 138.1264 221.9983 14.13321293104776
EUTELSAT 36D            
1 59346U 24059A   26097.60604053  .00000158  00000+0  00000+0 0  9997
2 59346   0.0172 185.4666 0000555 265.1198 359.3407  1.00271531  7437
STARLINK-31605          
1 59348U 24060A   26097.31275808  .00001177  00000+0  52306-4 0  9994
2 59348  43.0015  87.5418 0001323 270.1143  89.9557 15.27561798114509
STARLINK-31532          
1 59349U 24060B   26097.07289145 -.00001132  00000+0 -31619-4 0  9994
2 59349  43.0034  99.5659 0000856 284.3987  75.6770 15.27570308114454
STARLINK-31593          
1 59350U 24060C   26097.04332941  .00000560  00000+0  29889-4 0  9994
2 59350  43.0039  99.3449 0001051 262.2100  97.8632 15.27578458114408
STARLINK-31555          
1 59351U 24060D   26097.27677904 -.00002786  00000+0 -91785-4 0  9999
2 59351  43.0047  98.5142 0001929 283.7359  76.3278 15.27559308114486
STARLINK-31561          
1 59352U 24060E   26097.04076191  .00000814  00000+0  39097-4 0  9992
2 59352  42.9995  99.3244 0000727 287.5459  72.5313 15.27574710114401
STARLINK-31413          
1 59353U 24060F   26097.05489677 -.00001992  00000+0 -62869-4 0  9994
2 59353  43.0023  99.4317 0001241 272.6336  87.4374 15.27582027114401
STARLINK-31422          
1 59354U 24060G   26097.29859885 -.00000509  00000+0 -89928-5 0  9992
2 59354  43.0000  98.6810 0000980 277.4216  82.6524 15.27583363114436
STARLINK-31416          
1 59355U 24060H   26097.27289559 -.00000756  00000+0 -17983-4 0  9991
2 59355  42.9967  98.4771 0000693 202.9039 157.1782 15.27575244114431
STARLINK-31552          
1 59356U 24060J   26097.29474628  .00000252  00000+0  18655-4 0  9993
2 59356  43.0015  98.6649 0000676 252.9778 107.1000 15.27578735114436
STARLINK-31557          
1 59357U 24060K   26097.02710445  .00000863  00000+0  40875-4 0  9992
2 59357  43.0006  95.7274 0000811 273.2751  86.8008 15.27579445114448
STARLINK-31559          
1 59358U 24060L   26097.06260659  .00001594  00000+0  67428-4 0  9999
2 59358  43.0040  99.4874 0001214 268.9895  91.0817 15.27578624114402
STARLINK-31501          
1 59359U 24060M   26097.28703241  .00000882  00000+0  41569-4 0  9990
2 59359  43.0021  98.5968 0000942 263.4988  96.5757 15.27581704114435
STARLINK-31549          
1 59360U 24060N   26097.05101458  .00006521  00000+0  24625-3 0  9998
2 59360  43.0067  99.4041 0001120 253.1851 106.8878 15.27582059114403
STARLINK-31560          
1 59361U 24060P   26097.28060590  .00000994  00000+0  45641-4 0  9995
2 59361  43.0010  98.5384 0001072 257.9450 102.1281 15.27582534114433
STARLINK-31571          
1 59362U 24060Q   26097.28318436 -.00000531  00000+0 -97650-5 0  9998
2 59362  43.0007  98.5582 0001239 263.1459  96.9252 15.27574389114430
STARLINK-31553          
1 59363U 24060R   26097.27258502  .00005905  00000+0  22395-3 0  9995
2 59363  43.0017  91.5487 0000979 284.9184  75.1559 15.27576735114510
STARLINK-31547          
1 59364U 24060S   26097.32544663  .00001079  00000+0  48730-4 0  9998
2 59364  43.0001  86.7741 0000710 281.2279  78.8493 15.27579690114577
STARLINK-31537          
1 59365U 24060T   26097.42166021  .00002392  00000+0  96435-4 0  9992
2 59365  43.0024  97.8793 0001150 274.8187  85.2533 15.27575293114457
STARLINK-31451          
1 59366U 24060U   26097.04718351 -.00004490  00000+0 -15366-3 0  9996
2 59366  43.0022  99.3713 0001177 269.5057  90.5660 15.27596014114400
STARLINK-31428          
1 59367U 24060V   26097.05876024  .00006633  00000+0  25033-3 0  9991
2 59367  43.0025  99.4562 0001345 273.1031  86.9667 15.27582950114407
STARLINK-31419          
1 59368U 24060W   26097.06518219  .00002589  00000+0  10353-3 0  9997
2 59368  43.0034  99.5052 0001980 284.1774  75.8858 15.27592892114409
STARLINK-31583          
1 59369U 24060X   26097.02679560  .00000651  00000+0  33194-4 0  9998
2 59369  43.0036  88.8309 0000944 273.0801  86.9943 15.27578219114523
STARLINK-31461          
1 59370U 24060Y   26097.23451899  .00000734  00000+0  36207-4 0  9996
2 59370  43.0046  87.8104 0001489 290.5150  69.5542 15.27580368114490
RESURS-P 4              
1 59371U 24061A   26097.59576269  .00004151  00000+0  13186-3 0  9993
2 59371  97.2698  46.7539 0000875 101.6306 258.5035 15.33192624112951
STARLINK-31641          
1 59374U 24062A   26097.44303410  .00002132  00000+0  84081-4 0  9997
2 59374  53.1581 124.9549 0001321  85.6525 274.4626 15.30198837114029
STARLINK-31430          
1 59375U 24062B   26097.37034999 -.00000921  00000+0 -18974-4 0  9997
2 59375  53.1595 125.2088 0001196  76.7365 283.3769 15.30183246114025
STARLINK-31695          
1 59376U 24062C   26097.44344949  .00001053  00000+0  47686-4 0  9992
2 59376  53.1600 122.1138 0001239  84.8516 275.2626 15.30191558114039
STARLINK-31716          
1 59377U 24062D   26097.21427071 -.00001226  00000+0 -29287-4 0  9997
2 59377  53.1606  74.5221 0001298 105.6460 254.4684 15.30201128114672
STARLINK-31710          
1 59378U 24062E   26097.25805310  .00000342  00000+0  23656-4 0  9998
2 59378  53.1600 123.0833 0001100  98.2007 261.9119 15.30195921114008
